IRIDIUM 166             
1 43570U 18061B   23318.44321763  .00000436  00000+0  14867-3 0  9993
2 43570  86.3912  91.9949 0002844 106.9605 253.1903 14.34218449277847
IRIDIUM 158             
1 43571U 18061C   23318.62081822  .00000041  00000+0  76573-5 0  9999
2 43571  86.3945  91.9328 0002325  90.8222 269.3240 14.34217291277831
IRIDIUM 165             
1 43572U 18061D   23318.43688861  .00000391  00000+0  13265-3 0  9990
2 43572  86.3946  92.0379 0002418  92.6390 267.5083 14.34214245277831
IRIDIUM 155             
1 43573U 18061E   23318.60813682  .00000417  00000+0  14182-3 0  9999
2 43573  86.3943  91.8818 0001856  97.5191 262.6216 14.34215010277826
IRIDIUM 154             
1 43574U 18061F   23317.61231948  .00000444  00000+0  15151-3 0  9996
2 43574  86.3945  92.3856 0001991  85.1221 275.0202 14.34224594277734
IRIDIUM 163             
1 43575U 18061G   23318.63984860  .00000424  00000+0  14422-3 0  9996
2 43575  86.3945  91.9008 0002049  89.0229 271.1201 14.34216726277852
IRIDIUM 156             
1 43576U 18061H   23318.61448066  .00000444  00000+0  15143-3 0  9991
2 43576  86.3944  91.9173 0002199  98.0876 262.0570 14.34213748277847
IRIDIUM 164             
1 43577U 18061J   23318.45590464  .00000411  00000+0  13980-3 0  9995
2 43577  86.3946  92.0093 0002236  94.6038 265.5413 14.34214618277860
